NORAD_CAT_ID,OBJECT_NAME,OBJECT_TYPE,EPOCH,MEAN_MOTION,ECCENTRICITY,INCLINATION,RA_OF_ASC_NODE,ARG_OF_PERICENTER,MEAN_ANOMALY,BSTAR,MEAN_MOTION_DOT,MEAN_MOTION_DDOT,TLE_LINE0,TLE_LINE1,TLE_LINE2,SEMIMAJOR_AXIS,PERIOD,APOGEE,PERIGEE,DECAYED
56491.0,STARLINK-5842,PAYLOAD,2023-05-29 14:00:01,15.69928194,0.0003464,69.9998,192.2642,275.0529,141.4337,8.9854e-05,0.00010607,0.0,0 STARLINK-5842,1 56491U 23064AV  23149.58334491  .00010607  00000-0  89854-4 0  9998,2 56491  69.9998 192.2642 0003464 275.0529 141.4337 15.69928194  3336,6737.239,91.724,361.438,356.771,0.0
56491.0,STARLINK-5842,PAYLOAD,2023-05-29 19:52:38,15.6993318,0.0003411,69.9991,191.5763,271.3047,88.7758,0.000108,0.00012798,0.0,0 STARLINK-5842,1 56491U 23064AV  23149.82822650  .00012798  00000-0  10800-3 0  9991,2 56491  69.9991 191.5763 0003411 271.3047  88.7758 15.69933180  3028,6737.225,91.724,361.388,356.792,0.0
56491.0,STARLINK-5842,PAYLOAD,2023-05-30 01:59:39,15.69923954,0.0003611,69.999,190.8595,270.1053,89.9729,5.4538e-05,6.35e-05,0.0,0 STARLINK-5842,1 56491U 23064AV  23150.08309489  .00006350  00000-0  54538-4 0  9995,2 56491  69.9990 190.8595 0003611 270.1053  89.9729 15.69923954  3410,6737.252,91.724,361.549,356.684,0.0
56491.0,STARLINK-5842,PAYLOAD,2023-05-30 12:41:54,15.69945509,0.0003498,69.9993,189.6056,269.6888,90.3907,0.00013577,0.00016159,0.0,0 STARLINK-5842,1 56491U 23064AV  23150.52910791  .00016159  00000-0  13577-3 0  9993,2 56491  69.9993 189.6056 0003498 269.6888  90.3907 15.69945509  3136,6737.19,91.723,361.412,356.698,0.0
56491.0,STARLINK-5842,PAYLOAD,2023-05-30 20:20:40,15.69934808,0.0003407,69.9993,188.7095,270.3072,89.7734,0.00015396,0.00018348,0.0,0 STARLINK-5842,1 56491U 23064AV  23150.84769494  .00018348  00000-0  15396-3 0  9993,2 56491  69.9993 188.7095 0003407 270.3072  89.7734 15.69934808  3188,6737.221,91.724,361.381,356.79,0.0
56491.0,STARLINK-5842,PAYLOAD,2023-05-31 02:27:41,15.69935425,0.0003402,69.9992,187.9932,271.1926,88.888,0.00013389,0.00015924,0.0,0 STARLINK-5842,1 56491U 23064AV  23151.10256133  .00015924  00000-0  13389-3 0  9991,2 56491  69.9992 187.9932 0003402 271.1926  88.8880 15.69935425  3571,6737.219,91.724,361.376,356.792,0.0
56491.0,STARLINK-5842,PAYLOAD,2023-05-31 11:38:10,15.69910373,0.0003306,69.9993,186.9186,262.834,97.248,-0.00030776,-0.00037034,0.0,0 STARLINK-5842,1 56491U 23064AV  23151.48484150 -.00037034  00000-0 -30776-3 0  9991,2 56491  69.9993 186.9186 0003306 262.8340  97.2480 15.69910373  3285,6737.29,91.725,361.383,356.928,0.0
56491.0,STARLINK-5842,PAYLOAD,2023-05-31 14:41:41,15.69916036,0.0003246,69.999,186.56,264.9631,95.1194,0.00012327,0.0001463,0.0,0 STARLINK-5842,1 56491U 23064AV  23151.61228252  .00014630  00000-0  12327-3 0  9992,2 56491  69.9990 186.5600 0003246 264.9631  95.1194 15.69916036  3650,6737.274,91.725,361.326,356.952,0.0
56491.0,STARLINK-5842,PAYLOAD,2023-05-31 20:48:42,15.69891148,0.0003323,69.999,185.8432,266.3443,93.7372,0.00034187,0.00041039,0.0,0 STARLINK-5842,1 56491U 23064AV  23151.86715711  .00041039  00000-0  34187-3 0  9991,2 56491  69.9990 185.8432 0003323 266.3443  93.7372 15.69891148  3342,6737.345,91.726,361.449,356.972,0.0
56491.0,STARLINK-5842,PAYLOAD,2023-06-01 02:55:43,15.69922639,0.0003421,69.9989,185.1269,272.6942,87.3862,1.7686e-05,1.914e-05,0.0,0 STARLINK-5842,1 56491U 23064AV  23152.12203000  .00001914  00000-0  17686-4 0  9998,2 56491  69.9989 185.1269 0003421 272.6942  87.3862 15.69922639  3730,6737.255,91.724,361.425,356.816,0.0
56491.0,STARLINK-5842,PAYLOAD,2023-06-01 10:34:28,15.69937996,0.0003415,69.9985,184.2313,271.2337,88.8467,5.5022e-05,6.412e-05,0.0,0 STARLINK-5842,1 56491U 23064AV  23152.44060902  .00006412  00000-0  55022-4 0  9999,2 56491  69.9985 184.2313 0003415 271.2337  88.8467 15.69937996  3438,6737.211,91.723,361.377,356.776,0.0
56491.0,STARLINK-5842,PAYLOAD,2023-06-01 19:44:59,15.69927554,0.0002934,69.9989,183.1566,274.7047,85.3813,3.918e-05,4.501e-05,0.0,0 STARLINK-5842,1 56491U 23064AV  23152.82291307  .00004501  00000-0  39180-4 0  9990,2 56491  69.9989 183.1566 0002934 274.7047  85.3813 15.69927554  3493,6737.241,91.724,361.083,357.13,0.0
56491.0,STARLINK-5842,PAYLOAD,2023-06-02 09:30:45,15.69919339,0.0003431,69.9982,181.5442,270.6992,89.3811,-6.0616e-07,-2.86e-06,0.0,0 STARLINK-5842,1 56491U 23064AV  23153.39636522 -.00000286  00000-0 -60616-6 0  9993,2 56491  69.9982 181.5442 0003431 270.6992  89.3811 15.69919339  3931,6737.265,91.724,361.441,356.818,0.0
56491.0,STARLINK-5842,PAYLOAD,2023-06-02 11:02:31,15.69920857,0.0003425,69.9978,181.365,269.8054,90.2749,6.4389e-06,5.61e-06,0.0,0 STARLINK-5842,1 56491U 23064AV  23153.46008230  .00000561  00000-0  64389-5 0  9994,2 56491  69.9978 181.3650 0003425 269.8054  90.2749 15.69920857  3597,6737.26,91.724,361.433,356.818,0.0
56491.0,STARLINK-5842,PAYLOAD,2023-06-03 09:58:47,15.69926434,0.000346,69.9965,178.6778,272.0514,88.0285,1.9808e-05,2.17e-05,0.0,0 STARLINK-5842,1 56491U 23064AV  23154.41583009  .00002170  00000-0  19808-4 0  9995,2 56491  69.9965 178.6778 0003460 272.0514  88.0285 15.69926434  4092,6737.244,91.724,361.441,356.778,0.0
56491.0,STARLINK-5842,PAYLOAD,2023-06-03 11:30:32,15.6992499,0.0003446,69.9964,178.4987,269.4524,90.6276,1.8162e-05,1.972e-05,0.0,0 STARLINK-5842,1 56491U 23064AV  23154.47954757  .00001972  00000-0  18162-4 0  9994,2 56491  69.9964 178.4987 0003446 269.4524  90.6276 15.69924990  3752,6737.249,91.724,361.435,356.792,0.0
56491.0,STARLINK-5842,PAYLOAD,2023-06-03 19:09:18,15.69924365,0.0003497,69.9965,177.6034,269.7378,90.3416,8.3467e-06,7.91e-06,0.0,0 STARLINK-5842,1 56491U 23064AV  23154.79813208  .00000791  00000-0  83467-5 0  9993,2 56491  69.9965 177.6034 0003497 269.7378  90.3416 15.69924365  3808,6737.25,91.724,361.471,356.759,0.0
56491.0,STARLINK-5842,PAYLOAD,2023-06-04 02:48:04,15.69918976,0.0003512,69.997,176.7068,266.8979,93.1815,7.2336e-06,6.57e-06,0.0,0 STARLINK-5842,1 56491U 23064AV  23155.11671926  .00000657  00000-0  72336-5 0  9993,2 56491  69.9970 176.7068 0003512 266.8979  93.1815 15.69918976  4204,6737.266,91.724,361.497,356.765,0.0
56491.0,STARLINK-5842,PAYLOAD,2023-06-04 13:30:20,15.69920715,0.0003289,69.9984,175.4538,271.9128,88.1691,2.2372e-05,2.478e-05,0.0,0 STARLINK-5842,1 56491U 23064AV  23155.56273420  .00002478  00000-0  22372-4 0  9996,2 56491  69.9984 175.4538 0003289 271.9128  88.1691 15.69920715  3929,6737.261,91.724,361.342,356.91,0.0
56491.0,STARLINK-5842,PAYLOAD,2023-06-04 15:02:05,15.6992224,0.0003339,69.998,175.2744,270.9031,89.1783,2.1961e-05,2.428e-05,0.0,0 STARLINK-5842,1 56491U 23064AV  23155.62644995  .00002428  00000-0  21961-4 0  9990,2 56491  69.9980 175.2744 0003339 270.9031  89.1783 15.69922240  3939,6737.256,91.724,361.371,356.872,0.0
56491.0,STARLINK-5842,PAYLOAD,2023-06-05 04:47:51,15.69923954,0.0003202,69.9982,173.6614,268.8039,91.2789,1.4204e-05,1.495e-05,0.0,0 STARLINK-5842,1 56491U 23064AV  23156.19989993  .00001495  00000-0  14204-4 0  9998,2 56491  69.9982 173.6614 0003202 268.8039  91.2789 15.69923954  4374,6737.252,91.724,361.274,356.959,0.0
56491.0,STARLINK-5842,PAYLOAD,2023-06-05 12:26:37,15.69922949,0.0003337,69.9986,172.7672,267.4487,92.6326,1.1626e-05,1.185e-05,0.0,0 STARLINK-5842,1 56491U 23064AV  23156.51848471  .00001185  00000-0  11626-4 0  9990,2 56491  69.9986 172.7672 0003337 267.4487  92.6326 15.69922949  4075,6737.254,91.724,361.368,356.871,0.0
56491.0,STARLINK-5842,PAYLOAD,2023-06-05 18:33:37,15.69921396,0.0003484,69.998,172.0503,271.036,89.0437,6.9663e-06,6.25e-06,0.0,0 STARLINK-5842,1 56491U 23064AV  23156.77335336  .00000625  00000-0  69663-5 0  9992,2 56491  69.9980 172.0503 0003484 271.0360  89.0437 15.69921396  4112,6737.259,91.724,361.471,356.777,0.0
56491.0,STARLINK-5842,PAYLOAD,2023-06-06 08:19:23,15.69926044,0.0003265,69.9987,170.4389,268.0973,91.9849,1.4294e-05,1.506e-05,0.0,0 STARLINK-5842,1 56491U 23064AV  23157.34680017  .00001506  00000-0  14294-4 0  9993,2 56491  69.9987 170.4389 0003265 268.0973  91.9849 15.69926044  4558,6737.246,91.724,361.31,356.911,0.0
56491.0,STARLINK-5842,PAYLOAD,2023-06-06 09:51:08,15.6992541,0.0003287,69.9988,170.2602,269.056,91.0259,1.2551e-05,1.297e-05,0.0,0 STARLINK-5842,1 56491U 23064AV  23157.41051810  .00001297  00000-0  12551-4 0  9995,2 56491  69.9988 170.2602 0003287 269.0560  91.0259 15.69925410  4217,6737.247,91.724,361.327,356.898,0.0
56491.0,STARLINK-5842,PAYLOAD,2023-06-06 12:54:39,15.69924927,0.0003366,69.999,169.9021,269.3524,90.7287,4.7231e-06,3.55e-06,0.0,0 STARLINK-5842,1 56491U 23064AV  23157.53795318  .00000355  00000-0  47231-5 0  9994,2 56491  69.9990 169.9021 0003366 269.3524  90.7287 15.69924927  4232,6737.249,91.724,361.382,356.846,0.0
56491.0,STARLINK-5842,PAYLOAD,2023-06-07 10:19:10,15.69927699,0.0003276,69.9983,167.3933,265.3505,94.7317,5.8065e-06,4.86e-06,0.0,0 STARLINK-5842,1 56491U 23064AV  23158.42998533  .00000486  00000-0  58065-5 0  9999,2 56491  69.9983 167.3933 0003276 265.3505  94.7317 15.69927699  4724,6737.241,91.724,361.313,356.899,0.0
56491.0,STARLINK-5842,PAYLOAD,2023-06-07 13:22:40,15.69929021,0.0003571,69.9981,167.0352,272.2539,87.8248,2.4597e-06,8.3e-07,0.0,0 STARLINK-5842,1 56491U 23064AV  23158.55741846  .00000083  00000-0  24597-5 0  9992,2 56491  69.9981 167.0352 0003571 272.2539  87.8248 15.69929021  4396,6737.237,91.724,361.508,356.696,0.0
56491.0,STARLINK-5842,PAYLOAD,2023-06-07 17:57:56,15.69921311,0.0003435,69.9974,166.4976,272.854,87.2263,1.8731e-05,2.04e-05,0.0,0 STARLINK-5842,1 56491U 23064AV  23158.74857089  .00002040  00000-0  18731-4 0  9997,2 56491  69.9974 166.4976 0003435 272.8540  87.2263 15.69921311  4429,6737.259,91.724,361.438,356.81,0.0
56491.0,STARLINK-5842,PAYLOAD,2023-06-08 10:47:12,15.69924911,0.0003362,69.9973,164.5274,267.8652,92.2159,5.1437e-06,4.06e-06,0.0,0 STARLINK-5842,1 56491U 23064AV  23159.44945459  .00000406  00000-0  51437-5 0  9999,2 56491  69.9973 164.5274 0003362 267.8652  92.2159 15.69924911  4884,6737.249,91.724,361.379,356.849,0.0
